{
  "norad_id": 63579,
  "name": "STARLINK-33755",
  "history": [
    {
      "epoch": "2026-03-28T09:46:20.968896Z",
      "apogee_km": 484.07730880906456,
      "perigee_km": 481.94664760537125,
      "latitude_deg": 6.312991771527144e-06,
      "longitude_deg": -116.56614136053282,
      "height_km": 483.3725795194987,
      "semi_major_axis_km": 6861.148978207218,
      "eccentricity": 0.00015527,
      "inclination_deg": 42.9989,
      "raan_deg": 215.8493,
      "arg_perigee_deg": 236.745,
      "mean_anomaly_deg": 123.3253,
      "mean_motion_rev_day": 15.27592396
    },
    {
      "epoch": "2026-03-29T01:27:54.960192Z",
      "apogee_km": 484.50174113481444,
      "perigee_km": 481.441686648418,
      "latitude_deg": 2.8230444948913396e-05,
      "longitude_deg": 3.7121720270143452,
      "height_km": 482.33465474972434,
      "semi_major_axis_km": 6861.1087138916155,
      "eccentricity": 0.000223,
      "inclination_deg": 43.0023,
      "raan_deg": 212.1637,
      "arg_perigee_deg": 285.7243,
      "mean_anomaly_deg": 74.3363,
      "mean_motion_rev_day": 15.27605843
    },
    {
      "epoch": "2026-03-30T01:00:16.332480Z",
      "apogee_km": 483.9401444580599,
      "perigee_km": 482.1109585218337,
      "latitude_deg": 1.1966188489333849e-05,
      "longitude_deg": 4.115080537193456,
      "height_km": 482.5957186187657,
      "semi_major_axis_km": 6861.162551489947,
      "eccentricity": 0.0001333,
      "inclination_deg": 43.0037,
      "raan_deg": 206.6224,
      "arg_perigee_deg": 283.074,
      "mean_anomaly_deg": 76.9963,
      "mean_motion_rev_day": 15.27587863
    }
  ]
}